<?xml version="1.0" encoding="UTF-8"?><kml xmlns="http://www.opengis.net/kml/2.2"><Document><name>从运河到海湾 v2.0.0</name><description>地点及示意连线；非导航轨迹；KML不包含离线底图。未核实坐标不导出。</description><Placemark><name>阿姆斯特丹史基浦机场</name><description>Amsterdam Airport Schiphol (AMS) Schiphol Plaza, Schiphol, Netherlands（出发大厅按当日航班显示）；公开条目的场所范围参考点，非精确入口、站台或航站楼；导航采用当地名称、地址与票面入口。；坐标来源：https://en.wikipedia.org/wiki/Amsterdam_Airport_Schiphol</description><Point><coordinates>4.765,52.3,0</coordinates></Point></Placemark><Placemark><name>阿姆斯特丹Sloterdijk站</name><description>Amsterdam Sloterdijk Amsterdam Sloterdijk, Amsterdam, Netherlands；公开条目的场所范围参考点，非精确入口、站台或航站楼；导航采用当地名称、地址与票面入口。；坐标来源：https://en.wikipedia.org/wiki/Amsterdam_Sloterdijk_station</description><Point><coordinates>4.83806,52.38917,0</coordinates></Point></Placemark><Placemark><name>九街运河街区</name><description>De 9 Straatjes De 9 Straatjes, Amsterdam, Netherlands；公开条目的场所范围参考点，非精确入口、站台或航站楼；导航采用当地名称、地址与票面入口。；坐标来源：https://en.wikipedia.org/wiki/De_Negen_Straatjes</description><Point><coordinates>4.88583,52.37,0</coordinates></Point></Placemark><Placemark><name>北市场与约旦区</name><description>Noordermarkt / Jordaan Noordermarkt, 1015 MV Amsterdam, Netherlands；；坐标来源：I amsterdam 北市场页面“Google Maps”链接 query=52.3795998,4.886963199999999；市场区域定位点，非指定摊位。</description><Point><coordinates>4.8869632,52.3795998,0</coordinates></Point></Placemark><Placemark><name>荷兰国立博物馆</name><description>Rijksmuseum Museumstraat 1, 1071 XX Amsterdam, Netherlands；公开条目的场所范围参考点，非精确入口、站台或航站楼；导航采用当地名称、地址与票面入口。；坐标来源：https://en.wikipedia.org/wiki/Rijksmuseum</description><Point><coordinates>4.8853,52.36,0</coordinates></Point></Placemark><Placemark><name>冯德尔公园</name><description>Vondelpark Vondelpark, 1071 AA Amsterdam, Netherlands；；坐标来源：I amsterdam 冯德尔公园页面“Google Maps”链接 query=52.357994,4.868648；公园内部区域定位，导航时选择实际入口。</description><Point><coordinates>4.868648,52.357994,0</coordinates></Point></Placemark><Placemark><name>巴塞罗那机场T1</name><description>Josep Tarradellas Barcelona El Prat Airport Terminal 1 El Prat de Llobregat, Barcelona；公开条目的场所范围参考点，非精确入口、站台或航站楼；导航采用当地名称、地址与票面入口。；坐标来源：https://en.wikipedia.org/wiki/Barcelona%E2%80%93El_Prat_Airport</description><Point><coordinates>2.07833,41.29694,0</coordinates></Point></Placemark><Placemark><name>圣家堂诞生立面入口</name><description>Sagrada Família Nativity Facade entrance Carrer de la Marina, Barcelona；公开条目的场所范围参考点，非精确入口、站台或航站楼；导航采用当地名称、地址与票面入口。；坐标来源：https://en.wikipedia.org/wiki/Sagrada_Fam%C3%ADlia</description><Point><coordinates>2.17433,41.40369,0</coordinates></Point></Placemark><Placemark><name>圣保罗医院现代主义建筑群（外观）</name><description>Recinte Modernista de Sant Pau Carrer de Sant Antoni Maria Claret 167, Barcelona；公开条目的场所范围参考点，非精确入口、站台或航站楼；导航采用当地名称、地址与票面入口。；坐标来源：https://en.wikipedia.org/wiki/Hospital_de_Sant_Pau</description><Point><coordinates>2.17444,41.41278,0</coordinates></Point></Placemark><Placemark><name>格拉西亚大道</name><description>Passeig de Gràcia Passeig de Gràcia 43, Barcelona；格拉西亚大道步行段以巴特罗之家外观点定位；不代表整条街道或新增入馆安排。；坐标来源：https://en.wikipedia.org/wiki/Casa_Batll%C3%B3</description><Point><coordinates>2.16492,41.39158,0</coordinates></Point></Placemark><Placemark><name>帕尔马机场</name><description>Aeropuerto de Palma de Mallorca (PMI) Aeropuerto de Palma de Mallorca, 07611 Palma, Mallorca, Spain；公开条目的场所范围参考点，非精确入口、站台或航站楼；导航采用当地名称、地址与票面入口。；坐标来源：https://en.wikipedia.org/wiki/Palma_de_Mallorca_Airport</description><Point><coordinates>2.73889,39.55167,0</coordinates></Point></Placemark><Placemark><name>卡拉多尔白屋镇中心</name><description>Centro de Cala d’Or Avinguda de Bèlgica / Avenida Tagomago, Cala d’Or, Mallorca, Spain；公开条目的场所范围参考点，非精确入口、站台或航站楼；导航采用当地名称、地址与票面入口。；坐标来源：https://en.wikipedia.org/wiki/Cala_d%27Or</description><Point><coordinates>3.23111,39.37417,0</coordinates></Point></Placemark><Placemark><name>埃斯梅拉达公交站</name><description>Cala Esmeralda (TIB 57017) Parada Cala Esmeralda 57017, Cala d’Or, Mallorca, Spain；；坐标来源：TIB官方站点页检索结果（2026-09-18）；站点定位，非酒店入口</description><Point><coordinates>3.237003,39.378197,0</coordinates></Point></Placemark><Placemark><name>塞维利亚机场</name><description>Sevilla Airport Carretera Nacional IV, Sevilla；公开条目的场所范围参考点，非精确入口、站台或航站楼；导航采用当地名称、地址与票面入口。；坐标来源：https://en.wikipedia.org/wiki/Seville_Airport</description><Point><coordinates>-5.89889,37.41806,0</coordinates></Point></Placemark><Placemark><name>塞维利亚王宫狮门入口</name><description>Real Alcázar Puerta del León Patio de Banderas, Sevilla；公开条目的场所范围参考点，非精确入口、站台或航站楼；导航采用当地名称、地址与票面入口。；坐标来源：https://en.wikipedia.org/wiki/Alc%C3%A1zar_of_Seville</description><Point><coordinates>-5.99139,37.38389,0</coordinates></Point></Placemark><Placemark><name>大教堂与吉拉达塔外观</name><description>Catedral de Sevilla La Giralda Avenida de la Constitución, Sevilla；公开条目的场所范围参考点，非精确入口、站台或航站楼；导航采用当地名称、地址与票面入口。；坐标来源：https://en.wikipedia.org/wiki/Giralda</description><Point><coordinates>-5.992417,37.386194,0</coordinates></Point></Placemark><Placemark><name>西班牙广场</name><description>Plaza de España Sevilla Avenida de Isabel la Católica, Sevilla；公开条目的场所范围参考点，非精确入口、站台或航站楼；导航采用当地名称、地址与票面入口。；坐标来源：https://en.wikipedia.org/wiki/Plaza_de_Espa%C3%B1a,_Seville</description><Point><coordinates>-5.98694,37.37694,0</coordinates></Point></Placemark><Placemark><name>瓜达尔基维尔河畔</name><description>Puente de Isabel II Puente de Isabel II, Sevilla；公开条目的场所范围参考点，非精确入口、站台或航站楼；导航采用当地名称、地址与票面入口。；坐标来源：https://en.wikipedia.org/wiki/Puente_de_Isabel_II</description><Point><coordinates>-6.002333,37.386222,0</coordinates></Point></Placemark><Placemark><name>马德里阿托查站</name><description>Madrid Puerta de Atocha Almudena Grandes Plaza del Emperador Carlos V, Madrid；公开条目的场所范围参考点，非精确入口、站台或航站楼；导航采用当地名称、地址与票面入口。；坐标来源：https://en.wikipedia.org/wiki/Madrid_Atocha_railway_station</description><Point><coordinates>-3.6893,40.4065,0</coordinates></Point></Placemark><Placemark><name>马德里机场T1</name><description>Adolfo Suárez Madrid Barajas Airport Terminal 1 Madrid Barajas Terminal 1；公开条目的场所范围参考点，非精确入口、站台或航站楼；导航采用当地名称、地址与票面入口。；坐标来源：https://en.wikipedia.org/wiki/Adolfo_Su%C3%A1rez_Madrid%E2%80%93Barajas_Airport</description><Point><coordinates>-3.56083,40.47222,0</coordinates></Point></Placemark><Placemark><name>上海虹桥机场T1</name><description>Shanghai Hongqiao International Airport Terminal 1 上海市长宁区虹桥机场1号航站楼；公开条目的场所范围参考点，非精确入口、站台或航站楼；导航采用当地名称、地址与票面入口。；坐标来源：https://en.wikipedia.org/wiki/Shanghai_Hongqiao_International_Airport</description><Point><coordinates>121.33639,31.19806,0</coordinates></Point></Placemark><Placemark><name>厦门高崎机场T3</name><description>Xiamen Gaoqi International Airport Terminal 3 厦门市湖里区翔云一路121号 T3；公开条目的场所范围参考点，非精确入口、站台或航站楼；导航采用当地名称、地址与票面入口。；坐标来源：https://en.wikipedia.org/wiki/Xiamen_Gaoqi_International_Airport</description><Point><coordinates>118.12778,24.54417,0</coordinates></Point></Placemark><Placemark><name>成都天府机场T1</name><description>Chengdu Tianfu International Airport Terminal 1 成都天府国际机场 T1；公开条目的场所范围参考点，非精确入口、站台或航站楼；导航采用当地名称、地址与票面入口。；坐标来源：https://en.wikipedia.org/wiki/Chengdu_Tianfu_International_Airport</description><Point><coordinates>104.445,30.319,0</coordinates></Point></Placemark><Placemark><name>上海浦东机场T2</name><description>Shanghai Pudong International Airport Terminal 2 上海浦东国际机场 T2；公开条目的场所范围参考点，非精确入口、站台或航站楼；导航采用当地名称、地址与票面入口。；坐标来源：https://en.wikipedia.org/wiki/Shanghai_Pudong_International_Airport</description><Point><coordinates>121.80528,31.14333,0</coordinates></Point></Placemark><Placemark><name>2026-09-25 地点顺序示意（非道路）</name><Style><LineStyle><color>ff809570</color><width>2</width></LineStyle></Style><MultiGeometry><LineString><coordinates>121.33639,31.19806,0 118.12778,24.54417,0</coordinates></LineString><LineString><coordinates>118.12778,24.54417,0 4.765,52.3,0</coordinates></LineString></MultiGeometry></Placemark><Placemark><name>2026-09-26 地点顺序示意（非道路）</name><Style><LineStyle><color>ff809570</color><width>2</width></LineStyle></Style><MultiGeometry><LineString><coordinates>4.88583,52.37,0 4.8869632,52.3795998,0</coordinates></LineString></MultiGeometry></Placemark><Placemark><name>2026-09-27 地点顺序示意（非道路）</name><Style><LineStyle><color>ff809570</color><width>2</width></LineStyle></Style><MultiGeometry><LineString><coordinates>4.8853,52.36,0 4.868648,52.357994,0</coordinates></LineString></MultiGeometry></Placemark><Placemark><name>2026-09-28 地点顺序示意（非道路）</name><Style><LineStyle><color>ff809570</color><width>2</width></LineStyle></Style><MultiGeometry><LineString><coordinates>4.765,52.3,0 2.07833,41.29694,0</coordinates></LineString></MultiGeometry></Placemark><Placemark><name>2026-09-30 地点顺序示意（非道路）</name><Style><LineStyle><color>ff809570</color><width>2</width></LineStyle></Style><MultiGeometry><LineString><coordinates>2.07833,41.29694,0 2.73889,39.55167,0</coordinates></LineString></MultiGeometry></Placemark><Placemark><name>2026-10-03 地点顺序示意（非道路）</name><Style><LineStyle><color>ff809570</color><width>2</width></LineStyle></Style><MultiGeometry><LineString><coordinates>2.73889,39.55167,0 -5.89889,37.41806,0</coordinates></LineString></MultiGeometry></Placemark></Document></kml>